     2.10           N: GPS NAV DATA                         RINEX VERSION / TYPE
teqc  2009Mar23                         20140516 00:19:15UTCPGM / RUN BY / DATE
    16                                                      LEAP SECONDS
Linux 2.4.20-8|Pentium IV|gcc -static|Linux|486/DX+         COMMENT
teqc  2009Mar23                         20140515 01:05:03UTCCOMMENT
                                                            END OF HEADER
 5 14  5 15  4  0  0.0-3.727576695383D-04 2.501110429876D-12 0.000000000000D+00
    1.300000000000D+01-1.071875000000D+01 4.749840707074D-09-5.781418923990D-01
   -6.668269634247D-07 3.578687901609D-03 1.112744212151D-05 5.153593683243D+03
    3.600000000000D+05 7.450580596924D-08-4.073222718419D-01-1.303851604462D-08
    9.475449092317D-01 1.587812500000D+02 3.110650051975D-01-8.051406801982D-09
   -8.228914195878D-10 1.000000000000D+00 1.792000000000D+03 0.000000000000D+00
    2.000000000000D+00 0.000000000000D+00-1.024454832077D-08 1.300000000000D+01
    3.591600000000D+05 4.000000000000D+00
31 14  5 15  4  0  0.0 3.342451527715D-04 0.000000000000D+00 0.000000000000D+00
    1.500000000000D+01-3.312500000000D+00 4.258034507086D-09 1.985918594029D+00
   -5.587935447693D-08 7.987844408490D-03 3.408640623093D-07 5.153548265457D+03
    3.600000000000D+05 5.587935447693D-08 1.720755494796D+00 7.264316082001D-08
    9.781579388101D-01 3.805000000000D+02-6.359158335441D-01-8.229985669080D-09
   -5.214502919263D-11 1.000000000000D+00 1.792000000000D+03 0.000000000000D+00
    2.000000000000D+00 0.000000000000D+00-1.303851604462D-08 1.500000000000D+01
    3.593700000000D+05 4.000000000000D+00
 2 14  5 15  6  0  0.0 4.954054020345D-04 2.160049916711D-12 0.000000000000D+00
    5.900000000000D+01 1.875000000000D-01 5.700594595504D-09-1.881282946849D+00
    3.725290298462D-08 1.352476177271D-02 4.064291715622D-06 5.153592325211D+03
    3.672000000000D+05 1.788139343262D-07-1.475281017090D+00-6.705522537231D-08
    9.389055514249D-01 2.862812500000D+02-2.427562098734D+00-8.465352615916D-09
    2.382242087088D-10 1.000000000000D+00 1.792000000000D+03 0.000000000000D+00
    2.000000000000D+00 0.000000000000D+00-2.048909664154D-08 5.900000000000D+01
    3.635700000000D+05 4.000000000000D+00
 4 14  5 15  6  0  0.0 6.882008165121D-06 0.000000000000D+00 0.000000000000D+00
    5.600000000000D+01-8.750000000000D-01 5.819885278725D-09 1.484684509675D+00
   -1.061707735062D-07 1.056737033650D-02 4.742294549942D-06 5.153719137192D+03
    3.672000000000D+05-2.812594175339D-07-1.459241024434D+00-6.519258022308D-08
    9.379230600316D-01 2.805625000000D+02 1.096395283344D+00-8.687504726586D-09
    3.857303529318D-11 1.000000000000D+00 1.792000000000D+03 0.000000000000D+00
    2.000000000000D+00 0.000000000000D+00-6.519258022308D-09 5.600000000000D+01
    3.626700000000D+05 4.000000000000D+00
 5 14  5 15  6  0  0.0-3.727395087481D-04 2.501110429876D-12 0.000000000000D+00
    1.400000000000D+01-6.125000000000D+00 4.835201405547D-09 4.720541702881D-01
   -2.607703208923D-07 3.579385462217D-03 1.068413257599D-05 5.153594985962D+03
    3.672000000000D+05 3.539025783539D-08-4.073804564826D-01-2.235174179077D-08
    9.475388191037D-01 1.618750000000D+02 3.111005789764D-01-8.091408468212D-09
   -8.193198422458D-10 1.000000000000D+00 1.792000000000D+03 0.000000000000D+00
    2.000000000000D+00 0.000000000000D+00-1.024454832077D-08 1.400000000000D+01
    3.626700000000D+05 4.000000000000D+00
10 14  5 15  6  0  0.0-1.256018877029D-04-1.591615728103D-12 0.000000000000D+00
    8.000000000000D+01-3.531250000000D+00 5.048781730596D-09 7.061510220702D-01
    1.098960638046D-07 1.354933169205D-02 1.076236367226D-05 5.153732025146D+03
    3.672000000000D+05-5.215406417847D-08-3.900475938822D-01 1.247972249985D-07
    9.423516773242D-01 1.635625000000D+02 8.631473951079D-01-8.331775623326D-09
   -8.396778330950D-10 1.000000000000D+00 1.792000000000D+03 0.000000000000D+00
    2.000000000000D+00 0.000000000000D+00-2.793967723846D-09 8.000000000000D+01
    3.626700000000D+05 4.000000000000D+00
12 14  5 15  6  0  0.0 2.050218172371D-04 2.501110429876D-12 0.000000000000D+00
    4.200000000000D+01-1.539062500000D+02 3.561576925403D-09 2.716061318993D+00
   -7.865950465202D-06 5.128057557158D-03 9.166076779366D-06 5.153635078430D+03
    3.672000000000D+05-2.235174179077D-08 2.777638392177D+00-4.284083843231D-08
    9.877187155691D-01 2.163125000000D+02 4.277447867044D-01-7.658890452101D-09
   -1.521491947675D-10 1.000000000000D+00 1.792000000000D+03 0.000000000000D+00
    2.000000000000D+00 0.000000000000D+00-1.210719347000D-08 4.200000000000D+01
    3.626700000000D+05 4.000000000000D+00
13 14  5 15  5 59 44.0-3.273598849773D-07-3.865352482535D-12 0.000000000000D+00
    1.500000000000D+01 1.366250000000D+02 3.979451474413D-09-7.991915469072D-01
    7.042661309242D-06 5.372962681577D-03 7.422640919685D-06 5.153593872070D+03
    3.671840000000D+05-1.359730958939D-07 7.497142311213D-01 2.607703208923D-08
    9.779580295917D-01 2.474375000000D+02 2.253223686211D+00-7.894257398936D-09
    2.314382117591D-10 1.000000000000D+00 1.792000000000D+03 0.000000000000D+00
    2.000000000000D+00 0.000000000000D+00-1.117587089539D-08 1.500000000000D+01
    3.626700000000D+05 4.000000000000D+00
23 14  5 15  6  0  0.0-2.061016857624D-05-3.069544618484D-12 0.000000000000D+00
    1.700000000000D+01 1.361562500000D+02 4.430898850437D-09-1.463525143457D+00
    6.936490535736D-06 9.314234601334D-03 8.216127753258D-06 5.153792331696D+03
    3.672000000000D+05 3.725290298462D-08 6.528378443795D-01-1.862645149231D-07
    9.522436411813D-01 2.178125000000D+02-2.791773879079D+00-7.969617680851D-09
    1.703642392115D-10 1.000000000000D+00 1.792000000000D+03 0.000000000000D+00
    2.000000000000D+00 0.000000000000D+00-2.002343535423D-08 1.700000000000D+01
    3.626700000000D+05 4.000000000000D+00
25 14  5 15  6  0  0.0 2.382462844253D-05 5.684341886081D-13 0.000000000000D+00
    5.900000000000D+01-1.536250000000D+02 3.865160999470D-09 1.945536797314D+00
   -7.921829819679D-06 3.591962042265D-03 8.292496204376D-06 5.153621036530D+03
    3.672000000000D+05-1.862645149231D-08 2.735368075014D+00-2.421438694000D-08
    9.764031378527D-01 2.263750000000D+02 6.722431879128D-01-7.883542666910D-09
   -1.925080187317D-10 1.000000000000D+00 1.792000000000D+03 0.000000000000D+00
    2.000000000000D+00 0.000000000000D+00 5.122274160385D-09 5.900000000000D+01
    3.626700000000D+05 4.000000000000D+00
29 14  5 15  6  0  0.0 5.326238460839D-04 2.614797267597D-12 0.000000000000D+00
    2.300000000000D+01 4.312500000000D+00 4.311965324949D-09 2.407523080531D+00
   -1.862645149231D-09 1.603508717380D-03 1.085735857487D-05 5.153707698822D+03
    3.672000000000D+05 1.247972249985D-07-2.446488335133D+00 1.862645149231D-08
    9.693760342657D-01 1.751875000000D+02-8.888798871295D-01-7.764966299157D-09
    7.157440993290D-10 1.000000000000D+00 1.792000000000D+03 0.000000000000D+00
    2.000000000000D+00 0.000000000000D+00-9.778887033463D-09 2.300000000000D+01
    3.626700000000D+05 4.000000000000D+00
31 14  5 15  6  0  0.0 3.342446871102D-04 0.000000000000D+00 0.000000000000D+00
    4.200000000000D+01 4.687500000000D+00 4.353752779850D-09 3.036266861639D+00
    2.551823854446D-07 7.989114732482D-03 1.750886440277D-07 5.153545547485D+03
    3.672000000000D+05 3.911554813385D-08 1.720696198338D+00 8.381903171539D-08
    9.781576140423D-01 3.877500000000D+02-6.360073463846D-01-8.225699776270D-09
   -4.035882396416D-11 1.000000000000D+00 1.792000000000D+03 0.000000000000D+00
    2.000000000000D+00 0.000000000000D+00-1.303851604462D-08 4.200000000000D+01
    3.626700000000D+05 4.000000000000D+00
17 14  5 15  6  0  0.0-9.326124563813D-05-3.069544618484D-12 0.000000000000D+00
    2.200000000000D+01 1.275000000000D+01 4.404112020372D-09-3.689230085413D-01
    7.133930921555D-07 9.302113787271D-03 1.121871173382D-05 5.153591310501D+03
    3.672000000000D+05-5.215406417847D-08-2.455536199648D+00 1.583248376846D-07
    9.686510486385D-01 1.726562500000D+02-2.100276766969D+00-7.959974422028D-09
    7.786038605475D-10 1.000000000000D+00 1.792000000000D+03 0.000000000000D+00
    2.000000000000D+00 0.000000000000D+00-1.024454832077D-08 2.200000000000D+01
    3.619200000000D+05 4.000000000000D+00
21 14  5 15  6  0  0.0-3.611696884036D-04-2.273736754432D-12 0.000000000000D+00
    3.200000000000D+01 2.156250000000D+00 5.749882362823D-09 2.200306451687D+00
   -2.812594175339D-07 2.148110803682D-02 4.278495907784D-06 5.153748064041D+03
    3.672000000000D+05 4.097819328308D-08-1.457857713968D+00-4.507601261139D-07
    9.318420694539D-01 2.829375000000D+02-2.026835656378D+00-8.364991292607D-09
    8.857511808063D-11 1.000000000000D+00 1.792000000000D+03 0.000000000000D+00
    2.000000000000D+00 0.000000000000D+00-1.117587089539D-08 3.200000000000D+01
    3.668400000000D+05 4.000000000000D+00
 2 14  5 15  8  0  0.0 4.954207688570D-04 2.160049916711D-12 0.000000000000D+00
    6.000000000000D+01 4.093750000000D+00 5.777026350622D-09-8.310847643935D-01
    5.085021257401D-07 1.352464791853D-02 4.203990101814D-06 5.153591232300D+03
    3.744000000000D+05 1.899898052216D-07-1.475341758912D+00 2.104789018631D-07
    9.389061234259D-01 2.853750000000D+02-2.427521088751D+00-8.686076095649D-09
    1.321483616526D-10 1.000000000000D+00 1.792000000000D+03 0.000000000000D+00
    2.000000000000D+00 0.000000000000D+00-2.048909664154D-08 6.000000000000D+01
    3.707700000000D+05 4.000000000000D+00
